IRIDIUM 126             
1 42809U 17039G   23236.45836575  .00000101  00000+0  29135-4 0  9997
2 42809  86.3925  63.1418 0002173  96.3220 263.8223 14.34218574322648
IRIDIUM 124             
1 42810U 17039H   23236.43064578  .00000507  00000+0  14488-3 0  9997
2 42810  86.4542 359.9067 0002337  88.6068 271.5400 14.43277986326872
IRIDIUM 128             
1 42811U 17039J   23236.51887515  .00000113  00000+0  33190-4 0  9996
2 42811  86.3927  94.6706 0002200  87.9497 272.1951 14.34217384322688
IRIDIUM 121             
1 42812U 17039K   23236.61692645  .00000111  00000+0  32676-4 0  9992
2 42812  86.3926  63.0966 0002141  91.6653 268.4788 14.34217360322541
IRIDIUM 133             
1 42955U 17061A   23235.71336269  .00000268  00000+0  88772-4 0  9993
2 42955  86.3918  95.1026 0002199  96.4545 263.6901 14.34215442307365
IRIDIUM 100             
1 42956U 17061B   23237.10239145  .00000008  00000+0 -43641-5 0  9994
2 42956  86.3924  94.4624 0002082  94.8918 265.2515 14.34214793307587
IRIDIUM 122             
1 42957U 17061C   23237.07069566  .00000287  00000+0  95374-4 0  9996
2 42957  86.3925  94.4728 0002311  90.1766 269.9694 14.34218799307566
IRIDIUM 129             
1 42958U 17061D   23235.56114005  .00000263  00000+0  86694-4 0  9997
2 42958  86.3928  95.1609 0002211  91.2229 268.9220 14.34219151307366
